[{"OBJECT_NAME":"SHIYAN-1 (SY-1)","OBJECT_ID":"2004-012A","EPOCH":"2026-03-09T17:40:34.066560","MEAN_MOTION":15.31043463,"ECCENTRICITY":0.00058726,"INCLINATION":97.8764,"RA_OF_ASC_NODE":140.5238,"ARG_OF_PERICENTER":23.6952,"MEAN_ANOMALY":336.4557,"EPHEMERIS_TYPE":0,"CLASSIFICATION_TYPE":"U","NORAD_CAT_ID":28220,"ELEMENT_SET_NO":999,"REV_AT_EPOCH":19586,"BSTAR":0.00054854449,"MEAN_MOTION_DOT":0.00016393,"MEAN_MOTION_DDOT":0},{"OBJECT_NAME":"STARLINK-35104","OBJECT_ID":"2025-210K","EPOCH":"2026-03-09T21:13:10.559136","MEAN_MOTION":15.30210038,"ECCENTRICITY":0.00012873,"INCLINATION":53.1572,"RA_OF_ASC_NODE":305.9794,"ARG_OF_PERICENTER":127.6005,"MEAN_ANOMALY":232.5113,"EPHEMERIS_TYPE":0,"CLASSIFICATION_TYPE":"U","NORAD_CAT_ID":65631,"ELEMENT_SET_NO":999,"REV_AT_EPOCH":2775,"BSTAR":0.00091469647,"MEAN_MOTION_DOT":0.00026838,"MEAN_MOTION_DDOT":0}]
