SHIYAN-1 (SY-1)         
1 28220U 04012A   26068.73650539  .00016393  00000+0  54854-3 0  9991
2 28220  97.8764 140.5238 0005873  23.6952 336.4557 15.31043463195862
STARLINK-35104          
1 65631U 25210K   26068.88414999  .00026838  00000+0  91470-3 0  9995
2 65631  53.1572 305.9794 0001287 127.6005 232.5113 15.30210038 27753
